STARLINK-1539           
1 46072U 20055AX  22344.50587870  .00000788  00000+0  71811-4 0  9990
2 46072  53.0555  17.1231 0001673  64.2083 295.9078 15.06405159130661
STARLINK-1542           
1 46073U 20055AY  22345.11868533 -.00003297  00000+0 -20247-3 0  9993
2 46073  53.0553  14.3614 0001377  32.3878 327.7195 15.06416181130237
STARLINK-1549           
1 46074U 20055AZ  22345.17030433  .00013580  00000+0  92961-3 0  9996
2 46074  53.0559  14.1299 0001243 292.1695  67.9162 15.06366956130248
STARLINK-1551           
1 46075U 20055BA  22345.12975845 -.00009214  00000+0 -59954-3 0  9993
2 46075  53.0566  14.3226 0001213 342.0565  18.0381 15.06457674130234
STARLINK-1552           
1 46076U 20055BB  22344.49209947  .00001434  00000+0  11519-3 0  9995
2 46076  53.0557  17.1841 0002273  32.8969 327.2161 15.06399314130134
STARLINK-1559           
1 46077U 20055BC  22345.13711143  .00002029  00000+0  15511-3 0  9991
2 46077  53.0566  14.2926 0003335 271.9179  88.1428 15.06391173130231
STARLINK-1563           
1 46078U 20055BD  22344.58423027  .00001518  00000+0  12082-3 0  9993
2 46078  53.0549  16.7651 0002286  34.6556 325.4582 15.06398926130659
STARLINK-1566           
1 46079U 20055BE  22344.57686387  .00000960  00000+0  83341-4 0  9990
2 46079  53.0569  16.8045 0002042  42.2892 317.8254 15.06401374130684
STARLINK-1568           
1 46080U 20055BF  22345.06614744 -.00000205  00000+0  51363-5 0  9998
2 46080  53.0559  14.5963 0001716  53.7363 306.3785 15.06390516130223
STARLINK-1571           
1 46081U 20055BG  22344.43679206  .00000312  00000+0  39895-4 0  9996
2 46081  53.0573  17.4192 0003092  17.2890 342.8204 15.06413275130123
STARLINK-1578           
1 46082U 20055BH  22344.39257034  .00002283  00000+0  17213-3 0  9991
2 46082  53.0582  17.6400 0001650  58.1643 301.9507 15.06397576130651
STARLINK-1579           
1 46083U 20055BJ  22345.02654837  .00027240  00000+0  18394-2 0  9995
2 46083  53.0550  14.7890 0001731  58.4408 301.6750 15.06423741130213
GLOBAL-7                
1 46088U 20055BP  22343.31659910  .00006872  00000+0  10000-3 0  9992
2 46088  53.0072 104.5496 0008042 257.2985 124.0590 15.57026050137661
GLOBAL-8                
1 46089U 20055BQ  22345.26384356  .00006774  00000+0  10000-3 0  9999
2 46089  53.0000 102.6288 0017214 180.0960 179.8620 15.56553855137869
BSAT-4B                 
1 46112U 20056A   22344.41924347 -.00000334  00000+0  00000+0 0  9995
2 46112   0.0624 147.8780 0001693  52.8571 139.1781  1.00269517  8504
MEV-2                   
1 46113U 20056B   22344.56383450  .00000005  00000+0  00000+0 0  9990
2 46113   0.0218  60.7670 0001294 249.6386 330.8621  1.00269144 67663
GALAXY 30 (G-30)        
1 46114U 20056C   22344.68255309  .00000053  00000+0  00000+0 0  9998
2 46114   0.0178 347.9093 0002389 271.9510 300.2566  1.00272625  8416
STARLINK-1585           
1 46117U 20057A   22344.92703764 -.00009637  00000+0 -62841-3 0  9996
2 46117  53.0566 215.2391 0001758  46.1918 313.9216 15.06429034128436
STARLINK-1588           
1 46118U 20057B   22344.80355504 -.00002113  00000+0 -12302-3 0  9998
2 46118  53.0536 235.7682 0001321  73.1159 286.9975 15.06387904128752
STARLINK-1593           
1 46119U 20057C   22344.12902626  .00000850  00000+0  75958-4 0  9998
2 46119  53.0532 238.7970 0001629  58.9691 301.1458 15.06395381128636
STARLINK-1601           
1 46120U 20057D   22345.10948275  .00000654  00000+0  62824-4 0  9999
2 46120  53.0533 234.4188 0001878  58.0734 302.0437 15.06399933128182
STARLINK-1602           
1 46121U 20057E   22345.01181427 -.00001349  00000+0 -71702-4 0  9997
2 46121  53.0540 214.8517 0001809  56.2525 303.8636 15.06394033128446
STARLINK-1604           
1 46122U 20057F   22345.02103568 -.00001622  00000+0 -90015-4 0  9991
2 46122  53.0551 194.7931 0001597  90.7797 269.3375 15.06395176128730
STARLINK-1605           
1 46123U 20057G   22345.00629725 -.00001585  00000+0 -87525-4 0  9998
2 46123  53.0531 194.8756 0001381  82.7668 277.3478 15.06394438128726
STARLINK-1614           
1 46124U 20057H   22344.94731251 -.00000352  00000+0 -47137-5 0  9996
2 46124  53.0552 195.1317 0001808  58.1473 301.9692 15.06390160128722
STARLINK-1618           
1 46125U 20057J   22345.06156875  .00009625  00000+0  66406-3 0  9992
2 46125  53.0515 234.6297 0001507  62.4209 297.6933 15.06404351128175
STARLINK-1619           
1 46126U 20057K   22345.10213092  .00012773  00000+0  87515-3 0  9995
2 46126  53.0521 234.4513 0001617  66.0993 294.0165 15.06387209128185
STARLINK-1621           
1 46127U 20057L   22344.82752374 -.00004117  00000+0 -25779-3 0  9994
2 46127  53.0546 215.6758 0001909  49.5109 310.6046 15.06380689127754
STARLINK-1622           
1 46128U 20057M   22344.98786561  .00000947  00000+0  82500-4 0  9998
2 46128  53.0556 194.9495 0001664  66.9077 293.2087 15.06390835128721
STARLINK-1623           
1 46129U 20057N   22345.02840965 -.00000509  00000+0 -15320-4 0  9996
2 46129  53.0543 194.7725 0001270  88.0130 272.1005 15.06385159128730
STARLINK-1624           
1 46130U 20057P   22344.99524177 -.00000551  00000+0 -18061-4 0  9999
2 46130  53.0546 194.9151 0001591  56.7138 303.4004 15.06395730128728
STARLINK-1625           
1 46131U 20057Q   22344.80909347 -.00002042  00000+0 -11827-3 0  9995
2 46131  53.0539 215.7514 0001530  63.8954 296.2192 15.06380060129014
STARLINK-1630           
1 46132U 20057R   22345.11316857  .00002295  00000+0  17291-3 0  9998
2 46132  53.0529 234.3940 0001455  68.9391 291.1753 15.06398845128185
STARLINK-1637           
1 46133U 20057S   22344.98048389 -.00001073  00000+0 -53148-4 0  9992
2 46133  53.0543 194.9984 0001476  78.2203 281.8951 15.06399739128729
STARLINK-1638           
1 46134U 20057T   22344.91687689 -.00001180  00000+0 -60348-4 0  9997
2 46134  53.0530 195.2701 0001734  64.1048 296.0120 15.06398730128710
STARLINK-1639           
1 46135U 20057U   22344.79988129 -.00001183  00000+0 -60581-4 0  9999
2 46135  53.0563 195.8046 0001596 118.8945 241.2204 15.06388654128038
STARLINK-1643           
1 46136U 20057V   22345.04679981 -.00000488  00000+0 -13860-4 0  9997
2 46136  53.0551 224.6686 0001669  60.2978 299.8177 15.06405011128310
STARLINK-1586           
1 46137U 20057W   22344.86805561  .00000030  00000+0  20909-4 0  9995
2 46137  53.0533 215.4990 0002160  78.5104 281.6127 15.06405231128427
STARLINK-1590           
1 46138U 20057X   22344.99891241 -.00001845  00000+0 -10498-3 0  9998
2 46138  53.0542 234.9117 0001568  77.1373 282.9791 15.06395354128165
STARLINK-1594           
1 46140U 20057Z   22344.89202599  .00000149  00000+0  28947-4 0  9995
2 46140  53.0526 195.3706 0001852  47.3255 312.7890 15.06382764128712
STARLINK-1596           
1 46141U 20057AA  22344.86990852 -.00001241  00000+0 -64435-4 0  9997
2 46141  53.0559 195.4738 0002003  53.5114 306.6059 15.06397484128700
STARLINK-1597           
1 46142U 20057AB  22345.08739101  .00014807  00000+0  10112-2 0  9992
2 46142  53.0537 234.5159 0001522  72.2956 287.8199 15.06385922128176
STARLINK-1606           
1 46144U 20057AD  22345.05235559 -.00000800  00000+0 -34793-4 0  9992
2 46144  53.0552 214.6512 0001509  76.7675 283.3482 15.06395542128466
STARLINK-1608           
1 46146U 20057AF  22345.09843166 -.00000384  00000+0 -69126-5 0  9993
2 46146  53.0532 234.4659 0001512  59.2376 300.8762 15.06395123128186
STARLINK-1611           
1 46147U 20057AG  22345.01366021 -.00001683  00000+0 -94109-4 0  9997
2 46147  53.0529 234.8402 0001796  58.0528 302.0636 15.06386351128168
STARLINK-1616           
1 46148U 20057AH  22345.01918393  .00000065  00000+0  23267-4 0  9991
2 46148  53.0552 214.8244 0001766  63.6453 296.4717 15.06402733128443
STARLINK-1620           
1 46149U 20057AJ  22345.09932362  .00003782  00000+0  27263-3 0  9990
2 46149  53.0522 214.4534 0001931  50.5588 309.5571 15.06405158128467
STARLINK-1629           
1 46150U 20057AK  22345.09473991  .00001236  00000+0  10184-3 0  9996
2 46150  53.0549 234.4832 0001769  62.4231 297.6937 15.06399356128181
STARLINK-1631           
1 46151U 20057AL  22344.93810416 -.00002794  00000+0 -16879-3 0  9995
2 46151  53.0546 215.1666 0001607  70.9065 289.2098 15.06389810128437
STARLINK-1634           
1 46152U 20057AM  22344.98709698  .00015199  00000+0  10252-2 0  9999
2 46152  53.0523 234.9511 0001591  70.9075 289.2086 15.06827926128166
STARLINK-1636           
1 46153U 20057AN  22344.82383326 -.00001761  00000+0 -99391-4 0  9994
2 46153  53.0540 215.6852 0001564  63.5363 296.5786 15.06393679127753
STARLINK-1642           
1 46154U 20057AP  22345.09934820  .00004587  00000+0  32669-3 0  9997
2 46154  53.0528 224.4518 0001859  65.0746 295.0436 15.06395475128311
STARLINK-1667           
1 46155U 20057AQ  22344.79251533  .00006406  00000+0  44875-3 0  9991
2 46155  53.0539 195.8424 0001501  46.2699 313.8414 15.06382749129274
STARLINK-1545           
1 46156U 20057AR  22345.11502243  .00001170  00000+0  97440-4 0  9996
2 46156  53.0528 214.3912 0001505  71.2632 288.8520 15.06382393128476
STARLINK-1587           
1 46157U 20057AS  22344.83674233  .00001725  00000+0  13471-3 0  9991
2 46157  53.0518 195.6409 0002141  49.7105 310.4071 15.06393885128044
STARLINK-1589           
1 46158U 20057AT  22344.83305098 -.00001981  00000+0 -11412-3 0  9991
2 46158  53.0528 195.6545 0001957  54.0422 306.0749 15.06387697129309
STARLINK-1595           
1 46159U 20057AU  22345.00628241 -.00000640  00000+0 -24065-4 0  9990
2 46159  53.0537 234.8795 0001761  57.9331 302.1829 15.06398251128164
STARLINK-1598           
1 46160U 20057AV  22344.93072914 -.00001297  00000+0 -68184-4 0  9992
2 46160  53.0561 215.2172 0001927  66.1963 293.9228 15.06402350128438
STARLINK-1600           
1 46161U 20057AW  22345.10764058  .00000815  00000+0  73597-4 0  9997
2 46161  53.0540 214.4145 0001576  66.0342 294.0812 15.06391302128465
